ICESAT-2                
1 43613U 18070A   26188.71559113  .00006748  00000+0  24504-3 0  9992
2 43613  92.0083 296.5265 0005928  80.9427 279.2493 15.28260649435595
HYSIS                   
1 43719U 18096A   26188.85106613  .00000344  00000+0  53990-4 0  9993
2 43719  97.9826 255.4363 0001850  86.2325 273.9098 14.78659973410478
KAZSTSAT                
1 43783U 18099AB  26188.04465604  .00001617  00000+0  13466-3 0  9993
2 43783  97.4311 219.0757 0007949  11.5065 348.6339 14.99939036414288
SAUDISAT 5A             
1 43831U 18102A   26188.85673030  .00003901  00000+0  14409-3 0  9991
2 43831  97.3056 250.0407 0010985  66.5935 293.6458 15.28270411418838
SAUDISAT 5B             
1 43833U 18102C   26188.87217404  .00003568  00000+0  13102-3 0  9992
2 43833  97.3164 253.1630 0011742  68.1354 292.1134 15.28515971418958
GAOFEN-10R              
1 44622U 19066A   26188.86714612  .00000953  00000+0  12391-3 0  9995
2 44622  98.0505 142.5975 0007128  71.9836 288.2153 14.83046418365442
CARTOSAT-3              
1 44804U 19081A   26188.83847297  .00002452  00000+0  11923-3 0  9993
2 44804  97.4291 250.3726 0013358  83.7106 276.5650 15.19289513366600
GAOFEN-12 01            
1 44819U 19082A   26188.89667679  .00000312  00000+0  47372-4 0  9991
2 44819  97.8105 194.7297 0001367  52.4028 307.7308 14.80475649357152
CSG-1                   
1 44873U 19092A   26188.84460076  .00000312  00000+0  45724-4 0  9998
2 44873  97.8893  12.1484 0001488  90.9938 269.1445 14.82147145354539
NEMO-HD                 
1 46277U 20061F   26188.85801266  .00007283  00000+0  15619-3 0  9990
2 46277  97.1907 250.6064 0001206  78.8180 281.3205 15.45029195325175
SENTINEL-6A             
1 46984U 20086A   26188.77560647 -.00000058  00000+0  14304-4 0  9993
2 46984  66.0415  92.2915 0007809 269.9492  90.0629 12.80930122262967
CAS500-1                
1 47932U 21022A   26188.86355449  .00003966  00000+0  18656-3 0  9993
2 47932  97.3874  83.6959 0004374 194.3283 165.7829 15.20127398293902
GAOFEN-12 02            
1 48079U 21026A   26188.84236979  .00000287  00000+0  44540-4 0  9999
2 48079  97.9929 186.9392 0005325 152.0398 208.1101 14.80312268284817
PLEIADES NEO 3          
1 48268U 21034A   26188.85055273 -.00000292  00000+0 -30522-4 0  9998
2 48268  97.8935 263.3198 0001337  91.6002 268.5364 14.81672263280717
PLEIADES NEO 4          
1 49070U 21073E   26188.41157615 -.00000002  00000+0  63105-5 0  9990
2 49070  97.8931 262.8836 0001292  91.3078 268.8283 14.81677754264364
LANDSAT 9               
1 49260U 21088A   26188.79748503  .00000255  00000+0  66792-4 0  9993
2 49260  98.2273 258.7247 0001161  90.0270 270.1061 14.57111619254000
CSG-2                   
1 51444U 22008A   26188.81080237  .00000998  00000+0  13191-3 0  9997
2 51444  97.8896  12.1097 0001583  85.9565 274.1829 14.82161651239644
GAOFEN-12 03            
1 52912U 22069A   26188.87586196  .00000682  00000+0  96665-4 0  9994
2 52912  97.8249  76.2222 0002524  80.0452 280.1045 14.80069281217675
SWOT                    
1 54754U 22173A   26188.70998069 -.00000018  00000+0 -10313-4 0  9995
2 54754  77.6104   7.6033 0000281  77.5454 282.5729 14.00171867182027
GAOFEN-12 04            
1 57654U 23123A   26188.89408718  .00000775  00000+0  10983-3 0  9990
2 57654  97.9108 106.6045 0003812  65.1261 295.0347 14.79766147155698
PARS 1                  
1 59065U 24039Q   26188.89793939  .00007937  00000+0  16333-3 0  9999
2 59065  97.4834 170.4771 0010661  50.5568 309.6623 15.46176550131848
RESURS-P 4              
1 59371U 24061A   26188.83531693  .00002267  00000+0  75234-4 0  9992
2 59371  97.2754 136.3763 0003203 100.5700 259.5903 15.32251401126928
LEGION 1                
1 59625U 24081A   26188.74459501  .00002622  00000+0  13680-3 0  9994
2 59625  97.5009 266.3834 0007823 300.6268  59.4193 15.16811462120656
LEGION 2                
1 59626U 24081B   26188.77487236  .00002706  00000+0  14111-3 0  9997
2 59626  97.5010 266.5103 0009872 262.8374  97.1737 15.16789770120663
ALOS-4 (DAICHI-4)       
1 60182U 24123A   26188.85418414  .00001351  00000+0  18781-3 0  9996
2 60182  97.9220 285.7335 0001611  97.9718 262.1676 14.79468094108934
LEGION 3                
1 60452U 24146A   26188.75687951  .00002184  00000+0  12659-3 0  9997
2 60452  45.0020 280.2576 0008804 295.3787  64.6180 15.15624538105147
LEGION 4                
1 60453U 24146B   26188.75751888  .00002798  00000+0  15577-3 0  9992
2 60453  45.0022  12.1316 0011538  65.2528 294.9551 15.16201824103990
SENTINEL-2C             
1 60989U 24157A   26188.80191519  .00000071  00000+0  43640-4 0  9998
2 60989  98.5685 263.2917 0000949  96.1028 264.0263 14.30814279 95931
IONOSFERA-M 1           
1 61735U 24199A   26188.72893640  .00000028  00000+0  32273-4 0  9991
2 61735  98.7147  61.6818 0002211  82.5087 277.6342 14.22758031130622
IONOSFERA-M 2           
1 61736U 24199B   26188.76318225  .00000029  00000+0  32370-4 0  9996
2 61736  98.7146  61.6261 0000316  84.5221 275.5993 14.22761441133755
PRSC-EO1                
1 62725U 25012A   26188.89448832  .00004885  00000+0  24537-3 0  9991
2 62725  97.4215 260.9492 0006286 171.9134 188.2202 15.17720243 81332
