OBJECT_NAME,OBJECT_ID,EPOCH,MEAN_MOTION,ECCENTRICITY,INCLINATION,RA_OF_ASC_NODE,ARG_OF_PERICENTER,MEAN_ANOMALY,EPHEMERIS_TYPE,CLASSIFICATION_TYPE,NORAD_CAT_ID,ELEMENT_SET_NO,REV_AT_EPOCH,BSTAR,MEAN_MOTION_DOT,MEAN_MOTION_DDOT
ICESAT-2,2018-070A,2026-07-07T17:10:27.073632,15.28260649,.0005928,92.0083,296.5265,80.9427,279.2493,0,U,43613,999,43559,.24504E-3,.6748E-4,0
HYSIS,2018-096A,2026-07-07T20:25:32.113632,14.78659973,.000185,97.9826,255.4363,86.2325,273.9098,0,U,43719,999,41047,.5399E-4,.344E-5,0
KAZSTSAT,2018-099AB,2026-07-07T01:04:18.281856,14.99939036,.00079496,97.4311,219.0757,11.5065,348.6339,0,U,43783,999,41428,.13466348E-3,.1617E-4,0
SAUDISAT 5A,2018-102A,2026-07-07T20:33:41.497920,15.28270411,.0010985,97.3056,250.0407,66.5935,293.6458,0,U,43831,999,41883,.14409E-3,.3901E-4,0
SAUDISAT 5B,2018-102C,2026-07-07T20:55:55.837056,15.28515971,.0011742,97.3164,253.1630,68.1354,292.1134,0,U,43833,999,41895,.13102E-3,.3568E-4,0
GAOFEN-10R,2019-066A,2026-07-07T20:48:41.424768,14.83046418,.0007128,98.0505,142.5975,71.9836,288.2153,0,U,44622,999,36544,.12391E-3,.953E-5,0
CARTOSAT-3,2019-081A,2026-07-07T20:07:24.064608,15.19289513,.0013358,97.4291,250.3726,83.7106,276.5650,0,U,44804,999,36660,.11923E-3,.2452E-4,0
GAOFEN-12 01,2019-082A,2026-07-07T21:31:12.874656,14.80475649,.0001367,97.8105,194.7297,52.4028,307.7308,0,U,44819,999,35715,.47372E-4,.312E-5,0
CSG-1,2019-092A,2026-07-07T20:16:13.505664,14.82147145,.0001488,97.8893,12.1484,90.9938,269.1445,0,U,44873,999,35453,.45724E-4,.312E-5,0
NEMO-HD,2020-061F,2026-07-07T20:35:32.293824,15.45029195,.0001206,97.1907,250.6064,78.8180,281.3205,0,U,46277,999,32517,.15619E-3,.7283E-4,0
SENTINEL-6A,2020-086A,2026-07-07T18:36:52.399008,12.80930122,.0007809,66.0415,92.2915,269.9492,90.0629,0,U,46984,999,26296,.14304E-4,-.58E-6,0
CAS500-1,2021-022A,2026-07-07T20:43:31.107936,15.20127398,.0004374,97.3874,83.6959,194.3283,165.7829,0,U,47932,999,29390,.18656E-3,.3966E-4,0
GAOFEN-12 02,2021-026A,2026-07-07T20:13:00.749856,14.80312268,.0005325,97.9929,186.9392,152.0398,208.1101,0,U,48079,999,28481,.4454E-4,.287E-5,0
PLEIADES NEO 3,2021-034A,2026-07-07T20:24:47.755872,14.81672263,.0001337,97.8935,263.3198,91.6002,268.5364,0,U,48268,999,28071,-.30522E-4,-.292E-5,0
PLEIADES NEO 4,2021-073E,2026-07-07T09:52:40.179360,14.81677754,.00012925,97.8931,262.8836,91.3078,268.8283,0,U,49070,999,26436,.6310521E-5,-.2E-7,0
LANDSAT 9,2021-088A,2026-07-07T19:08:22.706592,14.57111619,.0001161,98.2273,258.7247,90.0270,270.1061,0,U,49260,999,25400,.66792E-4,.255E-5,0
CSG-2,2022-008A,2026-07-07T19:27:33.324768,14.82161651,.0001583,97.8896,12.1097,85.9565,274.1829,0,U,51444,999,23964,.13191E-3,.998E-5,0
GAOFEN-12 03,2022-069A,2026-07-07T21:01:14.473344,14.80069281,.0002524,97.8249,76.2222,80.0452,280.1045,0,U,52912,999,21767,.96665E-4,.682E-5,0
SWOT,2022-173A,2026-07-07T17:02:22.331616,14.00171867,.0000281,77.6104,7.6033,77.5454,282.5729,0,U,54754,999,18202,-.10313E-4,-.18E-6,0
GAOFEN-12 04,2023-123A,2026-07-07T21:27:29.132352,14.79766147,.0003812,97.9108,106.6045,65.1261,295.0347,0,U,57654,999,15569,.10983E-3,.775E-5,0
PARS 1,2024-039Q,2026-07-07T21:33:01.963296,15.46176550,.0010661,97.4834,170.4771,50.5568,309.6623,0,U,59065,999,13184,.16333E-3,.7937E-4,0
RESURS-P 4,2024-061A,2026-07-07T20:02:51.382752,15.32251401,.0003203,97.2754,136.3763,100.5700,259.5903,0,U,59371,999,12692,.75234E-4,.2267E-4,0
LEGION 1,2024-081A,2026-07-07T17:52:13.008864,15.16811462,.0007823,97.5009,266.3834,300.6268,59.4193,0,U,59625,999,12065,.1368E-3,.2622E-4,0
LEGION 2,2024-081B,2026-07-07T18:35:48.971904,15.16789770,.0009872,97.5010,266.5103,262.8374,97.1737,0,U,59626,999,12066,.14111E-3,.2706E-4,0
ALOS-4 (DAICHI-4),2024-123A,2026-07-07T20:30:01.509696,14.79468094,.0001611,97.9220,285.7335,97.9718,262.1676,0,U,60182,999,10893,.18781E-3,.1351E-4,0
LEGION 3,2024-146A,2026-07-07T18:09:54.389664,15.15624538,.0008804,45.0020,280.2576,295.3787,64.6180,0,U,60452,999,10514,.12659E-3,.2184E-4,0
LEGION 4,2024-146B,2026-07-07T18:10:49.631232,15.16201824,.0011538,45.0022,12.1316,65.2528,294.9551,0,U,60453,999,10399,.15577E-3,.2798E-4,0
SENTINEL-2C,2024-157A,2026-07-07T19:14:45.472416,14.30814279,.0000949,98.5685,263.2917,96.1028,264.0263,0,U,60989,999,9593,.4364E-4,.71E-6,0
IONOSFERA-M 1,2024-199A,2026-07-07T17:29:40.104960,14.22758031,.0002211,98.7147,61.6818,82.5087,277.6342,0,U,61735,999,13062,.32273E-4,.28E-6,0
IONOSFERA-M 2,2024-199B,2026-07-07T18:18:58.946400,14.22761441,.0000316,98.7146,61.6261,84.5221,275.5993,0,U,61736,999,13375,.3237E-4,.29E-6,0
PRSC-EO1,2025-012A,2026-07-07T21:28:03.790848,15.17720243,.0006286,97.4215,260.9492,171.9134,188.2202,0,U,62725,999,8133,.24537E-3,.4885E-4,0
